[Satellite]
VERSION=1.1
NAME=MOLNIYA 1-32
NICKNAME=MOLNIYA 1-32
TLE1=1 08601U 76006A   19314.63325469  .00000348  00000-0 -16504-2 0  9994
TLE2=2 08601  62.4362  84.5865 7354258 276.5546  12.3139  2.00085927 33711
STATUS=0
